YAOGAN-43 01D           
1 60461U 24148D   26068.43560480  .00010676  00000+0  37766-3 0  9999
2 60461  35.0010  61.7102 0002556 326.2473  33.8080 15.28369377 87008
STARLINK-35990          
1 66792U 25278B   26068.50555682  .00023226  00000+0  85071-3 0  9990
2 66792  42.9974 115.1677 0000993 201.3802 158.7008 15.27586169 15186
